STARLINK-3568           
1 51856U 22022E   26068.25012991 -.00000119  00000+0  10592-4 0  9996
2 51856  53.2194  21.1030 0001134  91.1770 268.9352 15.08849092222986
LEMUR-2-AHMED-ASRAR     
1 60576U 24149DN  26068.73265438  .00013045  00000+0  79773-3 0  9992
2 60576  97.7021 152.9847 0001633  18.5035 341.6253 15.10376432 85541
